[{"OBJECT_NAME":"PAYLOAD B","OBJECT_ID":"2021-076B","EPOCH":"2026-03-09T23:07:58.430208","MEAN_MOTION":14.09434158,"ECCENTRICITY":0.00205271,"INCLINATION":86.4029,"RA_OF_ASC_NODE":122.8006,"ARG_OF_PERICENTER":151.2326,"MEAN_ANOMALY":208.9992,"EPHEMERIS_TYPE":0,"CLASSIFICATION_TYPE":"U","NORAD_CAT_ID":49113,"ELEMENT_SET_NO":999,"REV_AT_EPOCH":23345,"BSTAR":0.00012894921,"MEAN_MOTION_DOT":2.44e-6,"MEAN_MOTION_DDOT":0},{"OBJECT_NAME":"FENGYUN 1C DEB","OBJECT_ID":"1999-025DGE","EPOCH":"2026-03-08T23:08:21.510240","MEAN_MOTION":13.71606941,"ECCENTRICITY":0.02260791,"INCLINATION":99.2245,"RA_OF_ASC_NODE":247.3625,"ARG_OF_PERICENTER":133.4558,"MEAN_ANOMALY":228.5642,"EPHEMERIS_TYPE":0,"CLASSIFICATION_TYPE":"U","NORAD_CAT_ID":33693,"ELEMENT_SET_NO":999,"REV_AT_EPOCH":89413,"BSTAR":0.0011966041,"MEAN_MOTION_DOT":1.254e-5,"MEAN_MOTION_DDOT":0}]
